HERMES-3                
1 63835U 25052BR  26068.93751242  .00020316  00000+0  69958-3 0  9995
2 63835  97.3987 324.6131 0007993 112.9583 247.2502 15.30039785 54863
STARLINK-34075          
1 63917U 25095AD  26068.31964944  .00028097  00000+0  10261-2 0  9996
2 63917  42.9947 178.0880 0002340 297.3480  62.7133 15.27595139 47726
